{
    "links": {
        "self": "http://www.neowsapp.com/rest/v1/neo/3614983?api_key=iIulBulltgU6a56xZRHN4H3l9WmuAYTsLGpBGhQ2"
    },
    "id": "3614983",
    "neo_reference_id": "3614983",
    "name": "(2012 UW158)",
    "designation": "2012 UW158",
    "nasa_jpl_url": "http://ssd.jpl.nasa.gov/sbdb.cgi?sstr=3614983",
    "absolute_magnitude_h": 23.8,
    "estimated_diameter": {
        "kilometers": {
            "estimated_diameter_min": 0.046190746,
            "estimated_diameter_max": 0.1032856481
        },
        "meters": {
            "estimated_diameter_min": 46.1907460282,
            "estimated_diameter_max": 103.2856480504
        },
        "miles": {
            "estimated_diameter_min": 0.0287015901,
            "estimated_diameter_max": 0.0641787064
        },
        "feet": {
            "estimated_diameter_min": 151.544447199,
            "estimated_diameter_max": 338.8636855496
        }
    },
    "is_potentially_hazardous_asteroid": false,
    "close_approach_data": [
        {
            "close_approach_date": "2012-10-22",
            "close_approach_date_full": "2012-Oct-22 13:04",
            "epoch_date_close_approach": 1350911040000,
            "relative_velocity": {
                "kilometers_per_second": "26.5753042431",
                "kilometers_per_hour": "95671.0952753033",
                "miles_per_hour": "59446.2980614794"
            },
            "miss_distance": {
                "astronomical": "0.027180897",
                "lunar": "10.573368933",
                "kilometers": "4066204.29588939",
                "miles": "2526622.188437982"
            },
            "orbiting_body": "Earth"
        }
    ],
    "orbital_data": {
        "orbit_id": "4",
        "orbit_determination_date": "2017-04-06 08:48:18",
        "first_observation_date": "2012-10-25",
        "last_observation_date": "2012-10-26",
        "data_arc_in_days": 1,
        "observations_used": 28,
        "orbit_uncertainty": "9",
        "minimum_orbit_intersection": ".0267454",
        "jupiter_tisserand_invariant": "3.106",
        "epoch_osculation": "2456226.5",
        "eccentricity": ".6862746573715709",
        "semi_major_axis": "2.232371602910374",
        "inclination": "35.56051097223197",
        "ascending_node_longitude": "31.13125915742422",
        "orbital_period": "1218.282935161133",
        "perihelion_distance": ".7003515459970325",
        "perihelion_argument": "282.0410610129084",
        "aphelion_distance": "3.764391659823715",
        "perihelion_time": "2456177.401499766781",
        "mean_anomaly": "14.50850173947568",
        "mean_motion": ".2954978598238228",
        "equinox": "J2000",
        "orbit_class": {
            "orbit_class_type": "APO",
            "orbit_class_description": "Near-Earth asteroid orbits which cross the Earth’s orbit similar to that of 1862 Apollo",
            "orbit_class_range": "a (semi-major axis) > 1.0 AU; q (perihelion) < 1.017 AU"
        }
    },
    "is_sentry_object": false
}